OBJECT_NAME,OBJECT_ID,EPOCH,MEAN_MOTION,ECCENTRICITY,INCLINATION,RA_OF_ASC_NODE,ARG_OF_PERICENTER,MEAN_ANOMALY,EPHEMERIS_TYPE,CLASSIFICATION_TYPE,NORAD_CAT_ID,ELEMENT_SET_NO,REV_AT_EPOCH,BSTAR,MEAN_MOTION_DOT,MEAN_MOTION_DDOT
ASNARO-2,2018-007A,2026-06-28T11:47:17.492352,15.22384378,.00017505,97.3967,186.2415,86.8650,273.2787,0,U,43152,999,46913,.1046962E-3,.2348E-4,0
JILIN-1 07,2018-008E,2026-06-28T15:11:18.137184,15.34908373,.00087995,97.1763,199.2567,30.1881,329.9868,0,U,43159,999,46675,.24064466E-3,.8079E-4,0
JILIN-1 08,2018-008F,2026-06-28T13:48:50.430816,15.33837247,.00072886,97.1798,198.5052,48.2003,311.9861,0,U,43160,999,46669,.17085751E-3,.5519E-4,0
S-NET D,2018-014G,2026-06-28T13:05:25.254816,15.16775504,.00076767,97.5360,84.2655,352.7322,7.3799,0,U,43186,999,46048,.25801849E-3,.5001E-4,0
S-NET B,2018-014H,2026-06-28T14:57:13.960800,15.16746001,.00081412,97.5363,84.3296,346.4195,13.6818,0,U,43187,999,46049,.25960814E-3,.5029E-4,0
S-NET A,2018-014J,2026-06-28T11:28:43.011840,15.16783506,.0008061,97.5374,84.3969,348.0349,12.0692,0,U,43188,999,46047,.25970035E-3,.5036E-4,0
S-NET C,2018-014K,2026-06-28T15:02:53.829024,15.16737862,.00091575,97.5390,84.6210,337.6520,22.4313,0,U,43189,999,45904,.25423568E-3,.4923E-4,0
PAZ,2018-020A,2026-06-28T00:59:14.300736,15.19156901,.00016676,97.4448,186.2725,86.9745,273.1680,0,U,43215,999,46265,.8795933E-4,.1781E-4,0
GOES 17,2018-022A,2026-06-28T13:44:39.067296,1.00272465,.00007272,0.9650,85.5284,27.3172,280.4799,0,U,43226,999,3053,0,-.172E-5,0
LKW-4,2018-025A,2026-06-28T12:59:43.138464,15.63173883,.00024759,97.6340,351.3118,238.9639,121.1376,0,U,43236,999,46180,.42789646E-3,.39056E-3,0
ZHUHAI-1 OVS-02,2018-040B,2026-06-28T15:33:10.634400,15.25172856,.00031393,97.0380,196.1982,181.0040,179.1193,0,U,43440,999,45446,.27380858E-3,.6803E-4,0
ZHUHAI-1 OHS-02,2018-040C,2026-06-28T15:02:24.055584,15.26041919,.00095105,97.0363,203.1291,177.3676,182.7616,0,U,43441,999,11602,.28030323E-3,.7159E-4,0
GAOFEN-6,2018-048A,2026-06-28T15:49:42.837312,14.76375114,.00116693,98.0895,242.3222,128.2341,231.9921,0,U,43484,999,43508,.89295706E-4,.568E-5,0
LUOJIA-1 01,2018-048B,2026-06-28T14:40:20.424000,14.87324816,.001043,97.8107,257.6159,84.6198,275.6208,0,U,43485,999,43591,.18523238E-3,.1619E-4,0
PAKTES 1A,2018-056A,2026-06-28T14:50:50.421696,14.99144107,.00210112,98.1277,336.5926,70.8067,289.5426,0,U,43529,999,43363,.20662407E-3,.2458E-4,0
PRSS-1,2018-056B,2026-06-28T14:24:32.982336,14.82005038,.00014551,97.7821,247.1541,75.2780,284.8595,0,U,43530,999,43012,.11195125E-3,.837E-5,0
HAIYANG-1C,2018-068A,2026-06-28T14:48:22.650912,14.34182593,.00120176,98.5194,251.7598,63.8981,296.3439,0,U,43609,999,40872,.99039448E-4,.234E-5,0
SSTL S1-4,2018-071A,2026-06-28T15:47:57.899328,14.96180873,.00021068,97.5019,50.7948,110.6425,249.5023,0,U,43618,999,42465,.12851435E-3,.1393E-4,0
HAIYANG-2B,2018-081A,2026-06-28T14:58:44.348160,13.79308624,.00001134,99.3282,188.2076,163.7767,196.3388,0,U,43655,999,38650,.1733252E-3,.134E-5,0
CFOSAT,2018-083A,2026-06-28T15:23:55.427136,15.16442079,.00023035,97.3603,183.8346,83.0516,277.0980,0,U,43662,999,42417,.16279006E-3,.3101E-4,0
TEN-KOH,2018-084G,2026-06-28T12:11:55.817088,15.02977493,.00110377,98.0746,12.3492,81.8837,278.3639,0,U,43677,999,41786,.10690948E-3,.1372E-4,0
DIWATA-2B,2018-084H,2026-06-28T13:45:34.117056,15.00500751,.00130607,98.1202,16.2785,134.7071,225.5218,0,U,43678,999,41792,.17512044E-3,.2144E-4,0
STARS-AO,2018-084J,2026-06-28T13:11:56.925888,15.17173372,.00034775,98.0490,34.2219,113.8337,246.3260,0,U,43679,999,41919,.29792089E-3,.5842E-4,0
AUTCUBE 2,2018-084K,2026-06-28T13:27:50.370624,15.10164780,.00091431,98.0698,26.3387,15.1878,344.9623,0,U,43681,999,41864,.1883866E-3,.3006E-4,0
METOP-C,2018-087A,2026-06-28T14:40:39.619488,14.21515006,.00020755,98.6640,239.0062,115.2193,244.9200,0,U,43689,999,39645,.65390359E-4,.1E-5,0
ES'HAIL 2,2018-090A,2026-06-28T14:17:33.173376,1.00270705,.00022343,0.0277,21.9304,109.9138,25.0182,0,U,43700,999,2779,0,0,0
MOHAMMED VI-B,2018-095A,2026-06-28T15:00:15.577920,14.77062724,.00015501,97.9559,251.7931,96.7167,263.4220,0,U,43717,999,40987,.13184787E-3,.88E-5,0
HYSIS,2018-096A,2026-06-28T15:32:58.981632,14.78639593,.00018504,97.9841,246.3061,90.2586,269.8837,0,U,43719,999,40911,.14852867E-3,.1036E-4,0
COSMOS 2530 (RODNIK-S 16),2018-097A,2026-06-28T13:34:50.658240,12.42881431,.00196962,82.5132,215.2189,15.4801,344.6877,0,U,43751,999,34370,.9766329E-4,.23E-6,0
