ASNARO-2                
1 43152U 18007A   26179.49117468  .00002348  00000+0  10470-3 0  9997
2 43152  97.3967 186.2415 0001750  86.8650 273.2787 15.22384378469133
JILIN-1 07              
1 43159U 18008E   26179.63284881  .00008079  00000+0  24064-3 0  9996
2 43159  97.1763 199.2567 0008799  30.1881 329.9868 15.34908373466756
JILIN-1 08              
1 43160U 18008F   26179.57558369  .00005519  00000+0  17086-3 0  9998
2 43160  97.1798 198.5052 0007288  48.2003 311.9861 15.33837247466692
S-NET D                 
1 43186U 18014G   26179.54543119  .00005001  00000+0  25802-3 0  9998
2 43186  97.5360  84.2655 0007676 352.7322   7.3799 15.16775504460482
S-NET B                 
1 43187U 18014H   26179.62307825  .00005029  00000+0  25961-3 0  9996
2 43187  97.5363  84.3296 0008141 346.4195  13.6818 15.16746001460497
S-NET A                 
1 43188U 18014J   26179.47827560  .00005036  00000+0  25970-3 0  9991
2 43188  97.5374  84.3969 0008061 348.0349  12.0692 15.16783506460479
S-NET C                 
1 43189U 18014K   26179.62701191  .00004923  00000+0  25424-3 0  9998
2 43189  97.5390  84.6210 0009157 337.6520  22.4313 15.16737862459042
PAZ                     
1 43215U 18020A   26179.04113774  .00001781  00000+0  87959-4 0  9996
2 43215  97.4448 186.2725 0001667  86.9745 273.1680 15.19156901462651
GOES 17                 
1 43226U 18022A   26179.57267439 -.00000172  00000+0  00000+0 0  9997
2 43226   0.9650  85.5284 0000727  27.3172 280.4799  1.00272465 30536
LKW-4                   
1 43236U 18025A   26179.54147151  .00039056  00000+0  42790-3 0  9994
2 43236  97.6340 351.3118 0002475 238.9639 121.1376 15.63173883461804
ZHUHAI-1 OVS-02         
1 43440U 18040B   26179.64803975  .00006803  00000+0  27381-3 0  9995
2 43440  97.0380 196.1982 0003139 181.0040 179.1193 15.25172856454466
ZHUHAI-1 OHS-02         
1 43441U 18040C   26179.62666731  .00007159  00000+0  28030-3 0  9998
2 43441  97.0363 203.1291 0009510 177.3676 182.7616 15.26041919116025
GAOFEN-6                
1 43484U 18048A   26179.65952358  .00000568  00000+0  89296-4 0  9998
2 43484  98.0895 242.3222 0011669 128.2341 231.9921 14.76375114435081
LUOJIA-1 01             
1 43485U 18048B   26179.61134750  .00001619  00000+0  18523-3 0  9995
2 43485  97.8107 257.6159 0010430  84.6198 275.6208 14.87324816435913
PAKTES 1A               
1 43529U 18056A   26179.61863914  .00002458  00000+0  20662-3 0  9993
2 43529  98.1277 336.5926 0021011  70.8067 289.5426 14.99144107433631
PRSS-1                  
1 43530U 18056B   26179.60038174  .00000837  00000+0  11195-3 0  9996
2 43530  97.7821 247.1541 0001455  75.2780 284.8595 14.82005038430121
HAIYANG-1C              
1 43609U 18068A   26179.61692883  .00000234  00000+0  99039-4 0  9995
2 43609  98.5194 251.7598 0012017  63.8981 296.3439 14.34182593408720
SSTL S1-4               
1 43618U 18071A   26179.65830902  .00001393  00000+0  12851-3 0  9992
2 43618  97.5019  50.7948 0002106 110.6425 249.5023 14.96180873424659
HAIYANG-2B              
1 43655U 18081A   26179.62412440  .00000134  00000+0  17333-3 0  9996
2 43655  99.3282 188.2076 0000113 163.7767 196.3388 13.79308624386505
CFOSAT                  
1 43662U 18083A   26179.64161374  .00003101  00000+0  16279-3 0  9990
2 43662  97.3603 183.8346 0002303  83.0516 277.0980 15.16442079424175
TEN-KOH                 
1 43677U 18084G   26179.50828492  .00001372  00000+0  10691-3 0  9993
2 43677  98.0746  12.3492 0011037  81.8837 278.3639 15.02977493417862
DIWATA-2B               
1 43678U 18084H   26179.57331154  .00002144  00000+0  17512-3 0  9992
2 43678  98.1202  16.2785 0013060 134.7071 225.5218 15.00500751417926
STARS-AO                
1 43679U 18084J   26179.54996442  .00005842  00000+0  29792-3 0  9998
2 43679  98.0490  34.2219 0003477 113.8337 246.3260 15.17173372419193
AUTCUBE 2               
1 43681U 18084K   26179.56099966  .00003006  00000+0  18839-3 0  9998
2 43681  98.0698  26.3387 0009143  15.1878 344.9623 15.10164780418647
METOP-C                 
1 43689U 18087A   26179.61156967  .00000100  00000+0  65390-4 0  9997
2 43689  98.6640 239.0062 0002075 115.2193 244.9200 14.21515006396456
ES'HAIL 2               
1 43700U 18090A   26179.59552284  .00000000  00000+0  00000+0 0  9995
2 43700   0.0277  21.9304 0002234 109.9138  25.0182  1.00270705 27798
MOHAMMED VI-B           
1 43717U 18095A   26179.62518030  .00000880  00000+0  13185-3 0  9991
2 43717  97.9559 251.7931 0001550  96.7167 263.4220 14.77062724409870
HYSIS                   
1 43719U 18096A   26179.64790488  .00001036  00000+0  14853-3 0  9992
2 43719  97.9841 246.3061 0001850  90.2586 269.8837 14.78639593409113
COSMOS 2530 (RODNIK-S *)
1 43751U 18097A   26179.56586410  .00000023  00000+0  97663-4 0  9994
2 43751  82.5132 215.2189 0019696  15.4801 344.6877 12.42881431343701
